#dP2023  9 29  0  0  0.00000000      96 __u+U IGS14 FIT  IAC
## 2281 432000.00000000   900.00000000 60216 0.0000000000000
+  120   C06C07C08C09C10C11C12C13C14C16C19C20C21C22C23C24C25
+        C26C27C28C29C30C32C33C34C35C36C37C38C39C40C41C42C43
+        C44C45C46E02E03E04E05E07E08E09E10E11E12E13E14E15E18
+        E19E21E24E25E26E27E30E31E33E34E36G01G02G03G04G05G06
+        G07G08G09G10G11G12G13G14G15G16G17G18G19G20G21G22G23
+        G24G25G26G27G28G29G30G31G32J02J03J04R01R02R03R04R05
+        R07R08R09R11R12R13R14R15R16R17R18R19R20R21R22R24R25
+        R26  0  0  0  0  0  0  0  0  0  0  0  0  0  0  0  0
++         7  7  7  7  7  7  7  7  7  7  6  6  5  5  6  6  6
++         6  6  6  6  6  6  6  6  6  6  6  7  6  6  6  6  6
++         6  6  6  4  5  4  5  4  4  4  4  4  4  4  4  4  5
++         4  4  5  5  4  4  4  4  4  4  4  4  4  3  3  3  4
++         4  4  3  4  3  4  3  4  4  4  4  4  4  3  4  4  4
++         4  4  4  4  4  3  4  4  4  9  9 10  8  7  7  7  7
++         7  7  7  7  7  8  7  7  7  7  7  8  8  7  7  7  8
++         8  0  0  0  0  0  0  0  0  0  0  0  0  0  0  0  0
%c M  cc GPS ccc cccc cccc cccc cccc ccccc ccccc ccccc ccccc
%c cc cc ccc ccc cccc cccc cccc cccc ccccc ccccc ccccc ccccc
%f  1.2500000  1.025000000  0.00000000000  0.000000000000000
%f  0.0000000  0.000000000  0.00000000000  0.000000000000000
%i    0    0    0    0      0      0      0      0         0
%i    0    0    0    0      0      0      0      0         0
/* INFORMATION & ANALYSIS CENTER (IAC)            FINAL DATA
/* S/V CLOCKS ARE ALIGNED TO GNSS TIME                      
/* G:C1WC2W R:C1PC2P E:C1XC5X C:C2IC6I J:C1CC2S             
/* PCV:IGS20_2280 OL/AL:FES2004  NONE     YN ORB:CoN CLK:CoN
*  2023 09 29  1 45  0.00000000
PC06 -17470.224472  33659.796662 -18722.473348     34.432362
PC07  -4825.211141  36796.660159 -19730.701973    -77.642189
PC08  -7062.919762  19243.003382  36821.655619    322.813704
PC09 -12650.891878  32313.210199 -23925.563160    107.186563
PC10   2006.691790  39452.362293 -13606.241791   -194.016253
PC11   4384.873022  18070.569445  20870.935704    176.849760
PC12 -10900.540589  24732.697976   6949.786808    918.655243
PC13    213.329537  22464.352392  35842.702630    359.429045
PC14  13615.135682  24304.996721  -1025.678262    491.306881
PC16 -22339.645616  33095.713004 -13777.456343   -101.698863
PC19 -17762.195433 -19023.335085  10106.547132   -970.734565
PC20  -8510.820264 -25769.022924  -6558.256198    246.016082
PC21  -6771.156044  17424.184050  20717.432029   -970.286921
PC22 -17301.704722   -993.457714  21864.668818   -287.869845
PC23  27794.347669   -656.244344   2458.325515   -858.398636
PC24   2511.893935  16341.491671 -22492.085802    441.068865
PC25  22234.354304  10093.681770 -13537.245199    221.496322
PC26 -16748.261905  12847.431939 -18249.922168   -184.353838
PC27  15977.941198 -22829.651763   1451.831136    205.992568
PC28  20200.918638 -10450.628661  16182.786890    154.762518
PC29 -12610.504190 -10020.374054 -22791.262240    180.813212
PC30   2537.377388 -23850.850575 -14256.613330     -5.643900
PC32   6712.413652 -17405.580647 -20751.253068   -528.468974
PC33  17851.139061  18976.023444  -9989.593471   -962.067875
PC34  -1372.877718  23309.797825  15282.585597    269.770962
PC35 -19853.983424  11146.140687 -16164.500889    536.479961
PC36 -21348.525707 -11045.816948  14192.971467   -203.853509
PC37  17836.233016 -12093.066672  17759.184620   -839.105983
PC38 -16326.855770  18538.107181  34159.876638    107.814975
PC39 -24110.108716  33674.949895  -8543.317303     -4.996497
PC40  -8795.609305  33599.795081 -23688.836031    -38.209399
PC41  17562.969224   1704.164684 -21573.387327   -875.462470
PC42   7422.797339  25682.624631   7998.891506   -534.905820
PC43  12101.814609  10966.269145  22622.296331     41.762354
PC44 -15239.451408  23334.173723  -1669.010158    245.822627
PC45 -27714.803781    960.395881  -2991.316135    -30.622677
PC46  -3866.498070 -16166.371535  22410.836912    -87.865889
PE02  19855.762044  -4136.348438  21567.093796     66.318625
PE03  15407.321627 -15421.688146 -20037.589423    -60.317219
PE04  -5669.600118  28687.012580   4596.059502   -222.599899
PE05  16188.292767   6818.275249 -23828.340688     22.687960
PE07  -7255.456671 -25393.300026  13374.707893    -78.279165
PE08   5925.116994 -28557.495762  -5089.062306   -153.479176
PE09   7124.537906  25451.793486 -13320.806471   -173.012225
PE10  -2729.518975  17908.224940  23399.364679   -567.248814
PE11   8860.474858  13529.809559  24781.146208   3010.322531
PE12 -12787.413411  19218.421644  18528.342584   -716.052598
PE13  -8078.263322 -13844.828581 -24881.767296    -19.729363
PE14   1128.992850  22998.655129   5565.032021    353.809010
PE15  13216.526223 -19180.551303 -18263.459989    -57.000777
PE18  -6338.558460 -28896.899806 -13288.696968    585.004236
PE19 -16002.984610  12773.639778  21376.960130  -1533.596126
PE21 -26050.855383 -11540.428076  -8014.727289   -555.351359
PE24  16893.958178  21527.410371 -11319.543986   -347.245886
PE25  26038.568489  11799.557073   7696.337382     -2.485726
PE26 -24732.995722    -75.786272 -16248.709330    236.172195
PE27 -17406.927423 -21339.497695  10850.388902   -161.639503
PE30   1889.931886 -18297.793091  23184.086431   -537.933082
PE31  -1368.636518  18456.805505 -23089.068359     -6.240401
PE33 -26644.196236  12865.472817    447.749965     -0.095912
PE34  26447.701596 -13273.044775  -1070.608469    -69.566317
PE36  24336.688594    489.128902  16846.450974   -122.727653
PG01   4347.793785 -16536.073331 -20567.722581    164.509471
PG02  11022.465260 -18176.450475 -15310.464633   -548.378728
PG03  -6293.745839 -19053.557292 -17602.521551   -109.236045
PG04    209.538837 -26074.219207   4695.771722    169.607069
PG05  -8639.996705  12251.663319  21743.742268   -144.516980
PG06 -24714.820744   4689.821076  -8605.454365    541.381904
PG07 -13680.953403 -10217.779508  20924.504841     54.430851
PG08   5866.934083 -24998.750370   5827.363496   -144.560603
PG09  -7368.414852 -22005.719879  12787.133174    -46.914684
PG10  23350.061313   9947.211302  -8193.181718    -55.266273
PG11 -23113.868498  12302.875817   4294.015333   -391.085955
PG12   1801.638628  18692.740285 -19086.576411   -430.066255
PG13 -13172.312234  19444.961512  11995.109712    578.043730
PG14 -22853.810591 -12648.453467  -5269.452413    198.813499
PG15  -2073.930298  25897.243925   4395.701365     82.051284
PG16  14362.723026  -6901.375953  21010.753716   -447.186351
PG17 -13455.804840  -7405.913926 -21217.856887    723.870823
PG18  15162.216815   8386.946096  20187.786587   -432.494210
PG19 -15456.889244   1503.901334 -21703.308229    377.881440
PG20 -18626.270966   5372.552902  18111.978241    409.480697
PG21  13277.903041 -17960.658792 -13114.198955    147.929901
PG22 -21979.148843  -8281.403968 -11665.735167    112.791142
PG23  20310.651832  16832.309414   3847.548224     75.013191
PG24  -7727.962949  18923.301510 -17116.779269   -332.339819
PG25  15003.660180  19571.736096 -10525.374122    470.158956
PG26  21661.521212   -181.808183  15474.308661    226.100446
PG27  12617.344638 -16655.458488  15892.122081    -47.047793
PG28  24123.075995  -3778.068172 -10477.761519    -16.760751
PG29   5226.283510  22300.328134  13313.352619   -609.716953
PG30 -21610.899835  -2850.154815  15474.811127   -483.512695
PG31  24960.069788  -9676.004685  -1246.437669   -224.000145
PG32  14956.500484   2582.704611 -21620.695976   -565.139268
PJ02 -23846.325503  17616.973373 -25373.774012     -4.781570
PJ03 -29216.090689  30428.080605   5388.784257     -3.786020
PJ04 -25843.369735  27046.049005  25377.310573     70.835436
PR01  -8200.586417 -24158.508314    -43.449917     66.618086
PR02 -12556.964146 -14649.885838  16681.418152    -22.411715
PR03 -10330.011470   3465.353600  23103.045379     86.094907
PR04  -2398.103566  19079.917219  16791.862451    204.726144
PR05   6680.682548  24596.368607   1375.345903    119.768750
PR07  10053.405232  -4223.829541 -23025.015319     65.694358
PR08   2214.005431 -19228.381946 -16540.860660    -72.731035
PR09  23435.269285   7735.571643  -6265.380914    144.819722
PR11  10904.054868  -8160.674465  21576.593908   -178.700638
PR12  -9801.809283 -12077.903911  20240.569238     31.788955
PR13 -22447.733292  -8754.941343   8361.705706    -39.690756
PR14 -23086.835983    481.802891 -10843.030198     25.331610
PR15  -9648.639306   8676.878907 -21938.850701     85.799624
PR16   9599.271290  11871.854170 -20410.921825     19.140612
PR17 -18924.671654  12435.702167 -11681.464176     21.185083
PR18 -15714.461502  19549.986791   4769.495665    104.271792
PR19  -6089.378726  17163.736371  17855.604314   -248.978732
PR20  11144.012010   3201.537485  22726.691873   -100.852210
PR21  19098.071987 -12974.615052  10886.515224    -41.581454
PR22  15767.530232 -19230.597714  -5638.075832     86.302210
PR24 -11997.911559  -2564.818520 -22340.476138    -26.203453
PR25  19592.470345 -11497.622268  11636.668133     30.646264
PR26   2349.826566 -18959.650014 -16897.381012    -22.378765
EOF
